0 SL-14 DEB
1 45272U 91056J   20071.16658567 -.00001836  00000-0 -21643-2 0  9993
2 45272  82.6454 315.9840 0225575  14.9148 345.8506 13.58215011  2970
0 SL-14 DEB
1 45273U 91056K   20070.84712467 +.00000722 +00000-0 +12204-2 0  9992
2 45273 082.5656 315.9150 0126619 015.6404 344.8587 13.41213629003468
0 TBA - TO BE ASSIGNED
1 45274U 91056L   20070.82668231 +.00000306 +00000-0 +76674-3 0  9990
2 45274 082.5390 316.4916 0029402 106.5761 253.8594 13.16602135003360
0 SL-14 DEB
1 45275U 91056M   20070.86658538 +.00000005 +00000-0 -17309-4 0  9992
2 45275 082.5858 316.8359 0030046 344.2565 015.7623 13.21977135003385
0 SL-14 DEB
1 45275U 91056M   20071.09363793  .00000005  00000-0 -18067-4 0  9996
2 45275  82.5857 316.6747 0030035 343.6822  16.3333 13.21977140  3415
0 SL-14 DEB
1 45276U 91056N   20070.77514554 -.00000122 +00000-0 -30388-3 0  9994
2 45276 082.5891 316.7848 0050003 025.8362 334.5247 13.26405394003389
0 SL-14 DEB
1 45278U 91056Q   20070.74994759 -.00001434  00000-0 -18651-2 0  9997
2 45278  82.6009 315.9563 0216776  40.4591 321.2444 13.53306961  3456
0 SL-14 DEB
1 45279U 91056R   20070.76355671 +.00000256 +00000-0 +78626-3 0  9992
2 45279 082.5566 317.2424 0078685 201.3556 158.4269 13.01310666002802
0 SL-14 DEB
1 45280U 91056S   20070.82960806 +.00000672 +00000-0 +17256-2 0  9996
2 45280 082.5984 317.1742 0024241 292.7158 067.1402 13.16457416003404
0 SL-14 DEB
1 45281U 91056T   20070.73653276 +.00002734 +00000-0 +38386-2 0  9995
2 45281 082.5706 315.7032 0181672 024.8201 336.1543 13.50375387003418
0 SL-14 DEB
1 45282U 91056U   20070.86835017 -.00000026 +00000-0 -10283-3 0  9996
2 45282 082.6202 317.4808 0015267 142.9152 217.3027 13.14593987003374
0 SL-14 DEB
1 45283U 91056V   20070.68632268 +.00003043 +00000-0 +13752-1 0  9992
2 45283 082.5445 318.1981 0254044 181.7301 178.2942 12.68330699003163
0 SL-14 DEB
1 45284U 91056W   20070.84666335 -.00001739 +00000-0 -33861-2 0  9999
2 45284 082.5587 316.0855 0126366 050.9676 310.2623 13.33854077002881
0 SL-14 DEB
1 45285U 91056X   20070.65202004 -.00000038 +00000-0 -16155-3 0  9997
2 45285 082.5679 317.5708 0107989 218.7522 140.5810 12.99276587003261
0 SL-14 DEB
1 45286U 91056Y   20070.70854254 -.00000058 +00000-0 -18815-3 0  9991
2 45286 082.6304 317.7025 0024093 127.5383 232.7933 13.14971240002825
0 SL-14 DEB
1 45288U 91056AA  20070.69930041 -.00002000 +00000-0 -82886-2 0  9997
2 45288 082.6186 318.6460 0201384 235.8643 122.3214 12.78550650002744
0 SL-14 DEB
1 45289U 91056AB  20070.69505260 -.00000844 +00000-0 -34127-2 0  9998
2 45289 082.5375 317.6974 0171713 201.4373 157.9479 12.82500499002720
0 SL-14 DEB
1 45290U 91056AC  20070.75516538 +.00000228 +00000-0 +43008-3 0  9990
2 45290 082.6244 316.9929 0133794 062.7988 298.6706 13.31074109002834
0 SL-14 DEB
1 45290U 91056AC  20071.05583442  .00000359  00000-0  69187-3 0  9993
2 45290  82.6244 316.7771 0133961  62.0671 299.3947 13.31074197  2871
0 TBA - TO BE ASSIGNED
1 45291U 91056AD  20070.66734121 +.00000941 +00000-0 +26832-2 0  9998
2 45291 082.5494 316.9688 0035964 207.2598 152.6634 13.09596596002772
0 SL-14 DEB
1 45292U 91056AE  20070.64702198 +.00000419 +00000-0 +90049-3 0  9998
2 45292 082.6305 317.3273 0122644 312.5334 046.5487 13.25297625002800
0 SL-14 DEB
1 45293U 91056AF  20070.66457499 +.00005248 +00000-0 +53958-2 0  9994
2 45293 082.5667 315.3997 0302694 053.1097 309.7382 13.57771085002878
0 SL-14 DEB
1 45294U 91056AG  20070.65742350 +.00000393 +00000-0 +98169-3 0  9997
2 45294 082.5688 316.9223 0011223 070.6053 289.6282 13.17439339001921
0 SL-14 DEB
1 45295U 91056AH  20070.68994174 +.00000262 +00000-0 +48817-3 0  9994
2 45295 082.5712 316.3379 0092432 022.4674 338.0465 13.34246644001949
0 SL-14 DEB
1 45297U 91056AK  20070.85306296 +.00001352 +00000-0 +43276-2 0  9991
2 45297 082.5997 317.5829 0087319 248.3782 110.8012 13.00859174003392
0 SL-14 DEB
1 45297U 91056AK  20071.08380079  .00000072  00000-0  19579-3 0  9996
2 45297  82.5997 317.4254 0087013 247.7176 111.4694 13.00859534  1935
0 SL-14 DEB
1 45299U 91056AM  20070.90507960 +.00002571 +00000-0 +76509-2 0  9999
2 45299 082.5937 317.3297 0104635 263.9820 094.9364 13.05613306003349
0 SL-14 DEB
1 45300U 91056AN  20070.71811394 +.00000246 +00000-0 +83786-3 0  9993
2 45300 082.5571 317.5720 0121637 194.6419 165.1155 12.92469515001886
0 SL-14 DEB
1 45301U 91056AP  20070.79618341 +.00004198 +00000-0 +62379-2 0  9993
2 45301 082.5163 315.0713 0174511 002.1628 358.0226 13.47508777003477
0 SL-14 DEB
1 45301U 91056AP  20071.09318381  .00003968  00000-0  58956-2 0  9998
2 45301  82.5164 314.8486 0174477   1.4891 358.6731 13.47510899  2000
0 SL-14 DEB
1 45302U 91056AQ  20070.59096280 +.00001561 +00000-0 +30063-2 0  9990
2 45302 082.5882 316.5621 0159953 061.4359 300.2764 13.31739761003436
0 SL-14 DEB
1 45304U 91056AS  20070.41254322 +.00001055 +00000-0 +31048-2 0  9998
2 45304 082.7025 318.9606 0056302 130.3955 230.2096 13.07161603001862
0 SL-14 DEB
1 45305U 91056AT  20070.63523191 +.00002326 +00000-0 +55443-2 0  9993
2 45305 082.5644 316.6960 0038483 351.6828 008.3655 13.22231297001918
0 SL-14 DEB
1 45306U 91056AU  20070.74602298  .00006303  00000-0  11761-1 0  9995
2 45306  82.6526 317.1954 0136999  53.1110 308.2487 13.35391420  3407
0 SL-14 DEB
1 45309U 91056AX  20070.84316112 +.00003087 +00000-0 +93009-2 0  9998
2 45309 082.5947 317.3370 0099805 268.7935 090.1745 13.04968779003422
0 SL-14 DEB
1 45310U 91056AY  20070.38888171 +.00000010 +00000-0 -41854-5 0  9996
2 45310 082.5979 318.1255 0101568 211.3391 148.1642 12.97113650001845
0 SL-14 DEB
1 45310U 91056AY  20071.08309448 -.00000113  00000-0 -42228-3 0  9998
2 45310  82.5983 317.6549 0101526 209.6252 149.9086 12.97113819  1938
0 SL-14 DEB
1 45311U 91056AZ  20070.87009550 +.00000026 +00000-0 +35204-4 0  9994
2 45311 082.5508 316.5496 0018989 083.7030 276.6255 13.18164255001936
0 SL-14 DEB
1 45311U 91056AZ  20070.71828930  .00000028  00000-0  40554-4 0  9994
2 45311  82.5508 316.6572 0018986  84.0612 276.2675 13.18164201  1910
0 SL-14 DEB
1 45312U 91056BA  20070.73551718 +.00000505 +00000-0 +12743-2 0  9991
2 45312 082.5205 316.3015 0013111 080.7608 279.4997 13.17338615002832
0 SL-14 DEB
1 45313U 91056BB  20070.84010280 +.00001665 +00000-0 +30253-2 0  9992
2 45313 082.5835 316.2398 0112177 018.1606 342.3484 13.37912115001835
0 SL-14 DEB
1 45314U 91056BC  20070.84422116 +.00000016 +00000-0 +11549-4 0  9996
2 45314 082.5350 316.7730 0050262 162.1045 198.1857 13.08429292001799
0 SL-14 DEB
1 45315U 91056BD  20070.80159834 +.00000005 +00000-0 -19994-4 0  9998
2 45315 082.5601 316.8429 0027816 131.8111 228.5392 13.14149387001794
0 SL-14 DEB
1 45316U 91056BE  20070.77084705 -.00000643 +00000-0 -14354-2 0  9991
2 45316 082.5916 316.7672 0106692 072.2688 289.0051 13.26619601002889
0 SL-14 DEB
1 45318U 91056BG  20070.64035903 +.00000005 +00000-0 -18660-4 0  9992
2 45318 082.5704 316.9358 0011386 056.1438 304.0767 13.18258348001775
0 SL-14 DEB
1 45319U 91056BH  20070.39646465 +.00000176 +00000-0 +32113-3 0  9992
2 45319 082.5828 316.7022 0089567 021.8982 338.5940 13.33793234001509
0 SL-14 DEB
1 45320U 91056BJ  20070.70799725 +.00000191 +00000-0 +35482-3 0  9996
2 45320 082.5684 316.3356 0085948 021.6737 338.7996 13.33359342001547
0 TBA - TO BE ASSIGNED
1 45321U 91056BK  20070.70382347 +.00000024 +00000-0 +28092-4 0  9990
2 45321 082.5620 316.7796 0023769 079.1773 281.2024 13.18864209001529
0 SL-14 DEB
1 45322U 91056BL  20070.92532172 +.00004654 +00000-0 +46547-2 0  9994
2 45322 082.6540 315.9964 0267025 014.3376 346.5160 13.63101161001601
0 SL-14 DEB
1 45323U 91056BM  20070.72518804 +.00000150 +00000-0 +35226-3 0  9999
2 45323 082.5305 316.4148 0008248 040.5643 319.6093 13.17831124001523
0 SL-14 DEB
1 45324U 91056BN  20070.60013013 +.00000046 +00000-0 +82175-4 0  9999
2 45324 082.5481 316.6411 0025847 066.2543 294.1288 13.20216667003340
0 SL-14 DEB
1 45325U 91056BP  20070.67965472 +.00004466 +00000-0 +49722-2 0  9991
2 45325 082.5624 315.2516 0228651 011.7180 348.9161 13.60604678001535
0 SL-14 DEB
1 45326U 91056BQ  20070.71382669 +.00000608 +00000-0 +14320-2 0  9998
2 45326 082.5927 317.0066 0035361 050.6558 309.7692 13.22069297003397
0 SL-14 DEB
1 45327U 91056BR  20071.12759705  .00000265  00000-0  48822-3 0  9998
2 45327  82.5667 315.9523 0094891  21.7102 338.8011 13.34844258  1196
0 SL-14 DEB
1 45328U 91056BS  20070.64674322 +.00001083 +00000-0 +18795-2 0  9990
2 45328 082.5506 315.9225 0122827 022.7039 337.9464 13.40076138001541
0 SL-14 DEB
1 45330U 91056BU  20070.69980936 +.00000387 +00000-0 +74018-3 0  9996
2 45330 082.5668 316.3024 0089792 023.6864 336.8362 13.33767256003350
0 SL-14 DEB
1 45331U 91056BV  20070.43530903 +.00000413 +00000-0 +16341-2 0  9998
2 45331 082.6748 319.4368 0196030 232.9820 125.3207 12.80034294001466
0 SL-14 DEB
1 45331U 91056BV  20071.13878281  .00000572  00000-0  22795-2 0  9996
2 45331  82.6749 318.9788 0195617 231.2202 127.1285 12.80035516  1153
0 SL-14 DEB
1 45332U 91056BW  20070.69198189 +.00000196 +00000-0 +49554-3 0  9994
2 45332 082.5536 316.9127 0109301 117.6317 243.5950 13.12109606001128
0 SL-14 DEB
1 45333U 91056BX  20071.13263263  .00041268  00000-0  29352+0 0  9996
2 45333  82.6001 319.6717 0336109 192.5493 166.7056 12.29210801  1093
0 SL-14 DEB
1 45335U 91056BZ  20070.09445581  .00348906  00000-0  12449+0 0  9995
2 45335  82.5600 315.2960 0486677  54.0528 310.4769 13.82375921  1092
0 SL-14 DEB
1 45336U 91056CA  20070.69991947 +.00000405 +00000-0 +87985-3 0  9994
2 45336 082.5779 316.6842 0056742 037.5984 322.9090 13.26410507001815
0 SL-14 DEB
1 45337U 91056CB  20070.93501471 -.00001590 +00000-0 -45046-2 0  9990
2 45337 082.5785 317.0542 0042771 249.9208 109.7305 13.11362579001156
